{"type": "FeatureCollection", "features": [ {"type": "Feature", "properties": {"norad_id": 41556, "name": "ZIYUAN 3-02 (ZY 3-02)", "group": "resource", "lat": 72.60983985951898, "lon": 46.33242744503545, "alt_km": 500.6496991553522, "timestamp": "2025-12-22T20:43:45.500130+00:00", "meta": {"OBJECT_NAME": "ZIYUAN 3-02 (ZY 3-02)", "OBJECT_ID": "2016-033A", "EPOCH": "2025-12-22T14:05:19.132800", "MEAN_MOTION": 15.21185985, "ECCENTRICITY": 0.00112142, "INCLINATION": 97.4032, "RA_OF_ASC_NODE": 70.5898, "ARG_OF_PERICENTER": 209.2234, "MEAN_ANOMALY": 150.8376, "EPHEMERIS_TYPE": 0, "CLASSIFICATION_TYPE": "U", "NORAD_CAT_ID": 41556, "ELEMENT_SET_NO": 999, "REV_AT_EPOCH": 53113, "BSTAR": 0.00032143404, "MEAN_MOTION_DOT": 7.11e-05, "MEAN_MOTION_DDOT": 0}, "tle": {"line1": "1 41556U 16033A   25356.58702700  .00007110  00000+0  32143-3 0  9998", "line2": "2 41556  97.4032  70.5898 0011214 209.2234 150.8376 15.21185985531134"}}, "geometry": {"type": "Point", "coordinates": [46.33242744503545, 72.60983985951898]}}, {"type": "Feature", "properties": {"norad_id": 41599, "name": "CARTOSAT-2C", "group": "resource", "lat": -56.43431908537305, "lon": 65.42311397030583, "alt_km": 515.1282356896518, "timestamp": "2025-12-22T20:43:45.500140+00:00", "meta": {"OBJECT_NAME": "CARTOSAT-2C", "OBJECT_ID": "2016-040A", "EPOCH": "2025-12-21T18:06:24.689088", "MEAN_MOTION": 15.19188008, "ECCENTRICITY": 0.00110207, "INCLINATION": 97.4756, "RA_OF_ASC_NODE": 52.9115, "ARG_OF_PERICENTER": 34.9019, "MEAN_ANOMALY": 325.2936, "EPHEMERIS_TYPE": 0, "CLASSIFICATION_TYPE": "U", "NORAD_CAT_ID": 41599, "ELEMENT_SET_NO": 999, "REV_AT_EPOCH": 52677, "BSTAR": 0.00012803175, "MEAN_MOTION_DOT": 2.628e-05, "MEAN_MOTION_DDOT": 0}, "tle": {"line1": "1 41599U 16040A   25355.75445242  .00002628  00000+0  12803-3 0  9996", "line2": "2 41599  97.4756  52.9115 0011020  34.9019 325.2936 15.19188008526779"}}, "geometry": {"type": "Point", "coordinates": [65.42311397030583, -56.43431908537305]}}, {"type": "Feature", "properties": {"norad_id": 41601, "name": "SKYSAT-C1", "group": "resource", "lat": 51.3377015765803, "lon": -137.88437946594, "alt_km": 463.6230791751568, "timestamp": "2025-12-22T20:43:45.500150+00:00", "meta": {"OBJECT_NAME": "SKYSAT-C1", "OBJECT_ID": "2016-040C", "EPOCH": "2025-12-22T13:54:18.807840", "MEAN_MOTION": 15.32757013, "ECCENTRICITY": 0.00012074, "INCLINATION": 96.9804, "RA_OF_ASC_NODE": 33.0383, "ARG_OF_PERICENTER": 337.3501, "MEAN_ANOMALY": 22.7689, "EPHEMERIS_TYPE": 0, "CLASSIFICATION_TYPE": "U", "NORAD_CAT_ID": 41601, "ELEMENT_SET_NO": 999, "REV_AT_EPOCH": 53078, "BSTAR": 0.00031179774, "MEAN_MOTION_DOT": 9.794e-05, "MEAN_MOTION_DDOT": 0}, "tle": {"line1": "1 41601U 16040C   25356.57938435  .00009794  00000+0  31180-3 0  9992", "line2": "2 41601  96.9804  33.0383 0001207 337.3501  22.7689 15.32757013530783"}}, "geometry": {"type": "Point", "coordinates": [-137.88437946594, 51.3377015765803]}}, {"type": "Feature", "properties": {"norad_id": 41603, "name": "LAPAN-A3", "group": "resource", "lat": -51.76635450508391, "lon": 164.89310087223504, "alt_km": 474.9722074512156, "timestamp": "2025-12-22T20:43:45.500160+00:00", "meta": {"OBJECT_NAME": "LAPAN-A3", "OBJECT_ID": "2016-040E", "EPOCH": "2025-12-22T15:00:48.720960", "MEAN_MOTION": 15.31627094, "ECCENTRICITY": 0.00087777, "INCLINATION": 97.1428, "RA_OF_ASC_NODE": 353.8221, "ARG_OF_PERICENTER": 293.3238, "MEAN_ANOMALY": 66.708, "EPHEMERIS_TYPE": 0, "CLASSIFICATION_TYPE": "U", "NORAD_CAT_ID": 41603, "ELEMENT_SET_NO": 999, "REV_AT_EPOCH": 52777, "BSTAR": 0.00013889378, "MEAN_MOTION_DOT": 4.171e-05, "MEAN_MOTION_DDOT": 0}, "tle": {"line1": "1 41603U 16040E   25356.62556390  .00004171  00000+0  13889-3 0  9996", "line2": "2 41603  97.1428 353.8221 0008777 293.3238  66.7080 15.31627094527773"}}, "geometry": {"type": "Point", "coordinates": [164.89310087223504, -51.76635450508391]}}, {"type": "Feature", "properties": {"norad_id": 41604, "name": "BIROS", "group": "resource", "lat": 78.56860703920664, "lon": -9.123246901521885, "alt_km": 283.23414328719355, "timestamp": "2025-12-22T20:43:45.500183+00:00", "meta": {"OBJECT_NAME": "BIROS", "OBJECT_ID": "2016-040F", "EPOCH": "2025-12-21T20:16:27.693408", "MEAN_MOTION": 15.93143853, "ECCENTRICITY": 0.00037129, "INCLINATION": 97.0682, "RA_OF_ASC_NODE": 27.6655, "ARG_OF_PERICENTER": 133.3571, "MEAN_ANOMALY": 226.8015, "EPHEMERIS_TYPE": 0, "CLASSIFICATION_TYPE": "U", "NORAD_CAT_ID": 41604, "ELEMENT_SET_NO": 999, "REV_AT_EPOCH": 53017, "BSTAR": 0.00065293224, "MEAN_MOTION_DOT": 0.00227507, "MEAN_MOTION_DDOT": 2.144608e-05}, "tle": {"line1": "1 41604U 16040F   25355.84476497  .00227507  21446-4  65293-3 0  9997", "line2": "2 41604  97.0682  27.6655 0003712 133.3571 226.8015 15.93143853530178"}}, "geometry": {"type": "Point", "coordinates": [-9.123246901521885, 78.56860703920664]}}, {"type": "Feature", "properties": {"norad_id": 41727, "name": "GAOFEN-3", "group": "resource", "lat": -2.2072968298712756, "lon": 2.621760450431024, "alt_km": 753.9609666821334, "timestamp": "2025-12-22T20:43:45.500194+00:00", "meta": {"OBJECT_NAME": "GAOFEN-3", "OBJECT_ID": "2016-049A", "EPOCH": "2025-12-22T14:04:45.600096", "MEAN_MOTION": 14.42215689, "ECCENTRICITY": 0.00011891, "INCLINATION": 98.403, "RA_OF_ASC_NODE": 2.0225, "ARG_OF_PERICENTER": 55.5247, "MEAN_ANOMALY": 304.6055, "EPHEMERIS_TYPE": 0, "CLASSIFICATION_TYPE": "U", "NORAD_CAT_ID": 41727, "ELEMENT_SET_NO": 999, "REV_AT_EPOCH": 49319, "BSTAR": 1.0207592e-05, "MEAN_MOTION_DOT": -1e-07, "MEAN_MOTION_DDOT": 0}, "tle": {"line1": "1 41727U 16049A   25356.58663889 -.00000010  00000+0  10208-4 0  9991", "line2": "2 41727  98.4030   2.0225 0001189  55.5247 304.6055 14.42215689493196"}}, "geometry": {"type": "Point", "coordinates": [2.621760450431024, -2.2072968298712756]}}, {"type": "Feature", "properties": {"norad_id": 41771, "name": "SKYSAT-C4", "group": "resource", "lat": 55.90247781592649, "lon": 11.200522201966326, "alt_km": 432.8234527072691, "timestamp": "2025-12-22T20:43:45.500205+00:00", "meta": {"OBJECT_NAME": "SKYSAT-C4", "OBJECT_ID": "2016-058B", "EPOCH": "2025-12-22T12:42:01.643616", "MEAN_MOTION": 15.425136, "ECCENTRICITY": 0.00023222, "INCLINATION": 96.9359, "RA_OF_ASC_NODE": 21.2414, "ARG_OF_PERICENTER": 126.8022, "MEAN_ANOMALY": 233.344, "EPHEMERIS_TYPE": 0, "CLASSIFICATION_TYPE": "U", "NORAD_CAT_ID": 41771, "ELEMENT_SET_NO": 999, "REV_AT_EPOCH": 51818, "BSTAR": 0.00035321412, "MEAN_MOTION_DOT": 0.00015247, "MEAN_MOTION_DDOT": 0}, "tle": {"line1": "1 41771U 16058B   25356.52918569  .00015247  00000+0  35321-3 0  9991", "line2": "2 41771  96.9359  21.2414 0002322 126.8022 233.3440 15.42513600518186"}}, "geometry": {"type": "Point", "coordinates": [11.200522201966326, 55.90247781592649]}}, {"type": "Feature", "properties": {"norad_id": 41772, "name": "SKYSAT-C5", "group": "resource", "lat": 28.779163421083197, "lon": 36.280914852291836, "alt_km": 464.6643324987017, "timestamp": "2025-12-22T20:43:45.500215+00:00", "meta": {"OBJECT_NAME": "SKYSAT-C5", "OBJECT_ID": "2016-058C", "EPOCH": "2025-12-22T01:49:00.968160", "MEAN_MOTION": 15.34032906, "ECCENTRICITY": 0.00038149, "INCLINATION": 97.0741, "RA_OF_ASC_NODE": 39.4372, "ARG_OF_PERICENTER": 246.7758, "MEAN_ANOMALY": 113.3085, "EPHEMERIS_TYPE": 0, "CLASSIFICATION_TYPE": "U", "NORAD_CAT_ID": 41772, "ELEMENT_SET_NO": 999, "REV_AT_EPOCH": 51659, "BSTAR": 0.00030067318, "MEAN_MOTION_DOT": 9.83e-05, "MEAN_MOTION_DDOT": 0}, "tle": {"line1": "1 41772U 16058C   25356.07570565  .00009830  00000+0  30067-3 0  9995", "line2": "2 41772  97.0741  39.4372 0003814 246.7758 113.3085 15.34032906516594"}}, "geometry": {"type": "Point", "coordinates": [36.280914852291836, 28.779163421083197]}}, {"type": "Feature", "properties": {"norad_id": 41773, "name": "SKYSAT-C2", "group": "resource", "lat": 20.545487448837527, "lon": -156.3856554470815, "alt_km": 455.56834175020776, "timestamp": "2025-12-22T20:43:45.500225+00:00", "meta": {"OBJECT_NAME": "SKYSAT-C2", "OBJECT_ID": "2016-058D", "EPOCH": "2025-12-22T13:47:28.316256", "MEAN_MOTION": 15.37479301, "ECCENTRICITY": 0.00031137, "INCLINATION": 97.0346, "RA_OF_ASC_NODE": 20.6848, "ARG_OF_PERICENTER": 5.7873, "MEAN_ANOMALY": 354.3408, "EPHEMERIS_TYPE": 0, "CLASSIFICATION_TYPE": "U", "NORAD_CAT_ID": 41773, "ELEMENT_SET_NO": 999, "REV_AT_EPOCH": 51787, "BSTAR": 0.00032762855, "MEAN_MOTION_DOT": 0.00011972, "MEAN_MOTION_DDOT": 0}, "tle": {"line1": "1 41773U 16058D   25356.57463329  .00011972  00000+0  32763-3 0  9995", "line2": "2 41773  97.0346  20.6848 0003113   5.7873 354.3408 15.37479301517874"}}, "geometry": {"type": "Point", "coordinates": [-156.3856554470815, 20.545487448837527]}}, {"type": "Feature", "properties": {"norad_id": 41774, "name": "SKYSAT-C3", "group": "resource", "lat": -68.31851719322377, "lon": -167.67046224242915, "alt_km": 440.5907786091284, "timestamp": "2025-12-22T20:43:45.500235+00:00", "meta": {"OBJECT_NAME": "SKYSAT-C3", "OBJECT_ID": "2016-058E", "EPOCH": "2025-12-22T02:33:05.139936", "MEAN_MOTION": 15.44711366, "ECCENTRICITY": 0.00020568, "INCLINATION": 96.9285, "RA_OF_ASC_NODE": 29.4174, "ARG_OF_PERICENTER": 107.2334, "MEAN_ANOMALY": 252.9141, "EPHEMERIS_TYPE": 0, "CLASSIFICATION_TYPE": "U", "NORAD_CAT_ID": 41774, "ELEMENT_SET_NO": 999, "REV_AT_EPOCH": 51870, "BSTAR": 0.00042430023, "MEAN_MOTION_DOT": 0.00019752, "MEAN_MOTION_DDOT": 0}, "tle": {"line1": "1 41774U 16058E   25356.10630949  .00019752  00000+0  42430-3 0  9995", "line2": "2 41774  96.9285  29.4174 0002056 107.2334 252.9141 15.44711366518707"}}, "geometry": {"type": "Point", "coordinates": [-167.67046224242915, -68.31851719322377]}}]}